STARLINK-32283          
1 62425U 24249S   26068.02850013  .00043069  00000+0  15653-2 0  9994
2 62425  43.0015 314.2453 0001991 267.6192  92.4432 15.27584278 67757
REAL                    
1 64875U 25154G   26068.72233414  .00022901  00000+0  82904-3 0  9994
2 64875  97.4133 137.2581 0001853 118.5876 241.5550 15.28408058 34830
